{"type": "FeatureCollection", "features": [ {"type": "Feature", "properties": {"norad_id": 29820, "name": "FENGYUN 1C DEB", "group": "fengyun-1c-debris", "lat": 39.33678400209454, "lon": -173.8020968430992, "alt_km": 874.9130610947213, "timestamp": "2025-12-17T23:38:07.125491+00:00", "meta": {"OBJECT_NAME": "FENGYUN 1C DEB", "OBJECT_ID": "1999-025DN", "EPOCH": "2025-12-17T14:59:34.423872", "MEAN_MOTION": 14.02614711, "ECCENTRICITY": 0.0072285, "INCLINATION": 98.8319, "RA_OF_ASC_NODE": 358.5281, "ARG_OF_PERICENTER": 224.0222, "MEAN_ANOMALY": 259.519, "EPHEMERIS_TYPE": 0, "CLASSIFICATION_TYPE": "U", "NORAD_CAT_ID": 29820, "ELEMENT_SET_NO": 999, "REV_AT_EPOCH": 96628, "BSTAR": 0.00065287134, "MEAN_MOTION_DOT": 9.87e-06, "MEAN_MOTION_DDOT": 0}, "tle": {"line1": "1 29820U 99025DN  25351.62470398  .00000987  00000+0  65287-3 0  9995", "line2": "2 29820  98.8319 358.5281 0072285 224.0222 259.5190 14.02614711966280"}}, "geometry": {"type": "Point", "coordinates": [-173.8020968430992, 39.33678400209454]}}, {"type": "Feature", "properties": {"norad_id": 29821, "name": "FENGYUN 1C DEB", "group": "fengyun-1c-debris", "lat": -13.930746951234832, "lon": 49.15056570462292, "alt_km": 987.853312080375, "timestamp": "2025-12-17T23:38:07.125501+00:00", "meta": {"OBJECT_NAME": "FENGYUN 1C DEB", "OBJECT_ID": "1999-025DP", "EPOCH": "2025-12-17T03:32:37.709952", "MEAN_MOTION": 14.11091582, "ECCENTRICITY": 0.03762669, "INCLINATION": 98.8739, "RA_OF_ASC_NODE": 46.1004, "ARG_OF_PERICENTER": 108.243, "MEAN_ANOMALY": 311.2857, "EPHEMERIS_TYPE": 0, "CLASSIFICATION_TYPE": "U", "NORAD_CAT_ID": 29821, "ELEMENT_SET_NO": 999, "REV_AT_EPOCH": 96573, "BSTAR": 0.00042451643, "MEAN_MOTION_DOT": 1.441e-05, "MEAN_MOTION_DDOT": 0}, "tle": {"line1": "1 29821U 99025DP  25351.14765868  .00001441  00000+0  42452-3 0  9997", "line2": "2 29821  98.8739  46.1004 0376266 108.2430 311.2857 14.11091582965730"}}, "geometry": {"type": "Point", "coordinates": [49.15056570462292, -13.930746951234832]}}, {"type": "Feature", "properties": {"norad_id": 29827, "name": "FENGYUN 1C DEB", "group": "fengyun-1c-debris", "lat": 7.1841515663908115, "lon": 164.14479446991302, "alt_km": 834.0393832164154, "timestamp": "2025-12-17T23:38:07.125512+00:00", "meta": {"OBJECT_NAME": "FENGYUN 1C DEB", "OBJECT_ID": "1999-025DV", "EPOCH": "2025-12-17T06:00:37.317024", "MEAN_MOTION": 14.21694439, "ECCENTRICITY": 0.00248242, "INCLINATION": 98.6028, "RA_OF_ASC_NODE": 342.3356, "ARG_OF_PERICENTER": 309.13, "MEAN_ANOMALY": 67.2252, "EPHEMERIS_TYPE": 0, "CLASSIFICATION_TYPE": "U", "NORAD_CAT_ID": 29827, "ELEMENT_SET_NO": 999, "REV_AT_EPOCH": 97927, "BSTAR": 0.00029370534, "MEAN_MOTION_DOT": 6.04e-06, "MEAN_MOTION_DDOT": 0}, "tle": {"line1": "1 29827U 99025DV  25351.25043191  .00000604  00000+0  29371-3 0  9998", "line2": "2 29827  98.6028 342.3356 0024824 309.1300  67.2252 14.21694439979276"}}, "geometry": {"type": "Point", "coordinates": [164.14479446991302, 7.1841515663908115]}}, {"type": "Feature", "properties": {"norad_id": 29828, "name": "FENGYUN 1C DEB", "group": "fengyun-1c-debris", "lat": -25.615400426316587, "lon": 41.55156201823462, "alt_km": 914.612292929799, "timestamp": "2025-12-17T23:38:07.125522+00:00", "meta": {"OBJECT_NAME": "FENGYUN 1C DEB", "OBJECT_ID": "1999-025DW", "EPOCH": "2025-12-17T08:42:03.155328", "MEAN_MOTION": 14.0817639, "ECCENTRICITY": 0.00614625, "INCLINATION": 98.77, "RA_OF_ASC_NODE": 36.7024, "ARG_OF_PERICENTER": 143.269, "MEAN_ANOMALY": 278.259, "EPHEMERIS_TYPE": 0, "CLASSIFICATION_TYPE": "U", "NORAD_CAT_ID": 29828, "ELEMENT_SET_NO": 999, "REV_AT_EPOCH": 96802, "BSTAR": 0.00080717737, "MEAN_MOTION_DOT": 1.359e-05, "MEAN_MOTION_DDOT": 0}, "tle": {"line1": "1 29828U 99025DW  25351.36253652  .00001359  00000+0  80718-3 0  9996", "line2": "2 29828  98.7700  36.7024 0061462 143.2690 278.2590 14.08176390968025"}}, "geometry": {"type": "Point", "coordinates": [41.55156201823462, -25.615400426316587]}}, {"type": "Feature", "properties": {"norad_id": 29832, "name": "FENGYUN 1C DEB", "group": "fengyun-1c-debris", "lat": -16.070186770454622, "lon": -78.84603025377407, "alt_km": 662.1849033170984, "timestamp": "2025-12-17T23:38:07.125532+00:00", "meta": {"OBJECT_NAME": "FENGYUN 1C DEB", "OBJECT_ID": "1999-025EA", "EPOCH": "2025-12-17T14:28:28.723008", "MEAN_MOTION": 14.56564896, "ECCENTRICITY": 0.01921857, "INCLINATION": 98.8195, "RA_OF_ASC_NODE": 103.3136, "ARG_OF_PERICENTER": 268.2002, "MEAN_ANOMALY": 89.7175, "EPHEMERIS_TYPE": 0, "CLASSIFICATION_TYPE": "U", "NORAD_CAT_ID": 29832, "ELEMENT_SET_NO": 999, "REV_AT_EPOCH": 326, "BSTAR": 0.00014161367, "MEAN_MOTION_DOT": 7.44e-06, "MEAN_MOTION_DDOT": 0}, "tle": {"line1": "1 29832U 99025EA  25351.60311022  .00000744  00000+0  14161-3 0  9990", "line2": "2 29832  98.8195 103.3136 0192185 268.2002  89.7175 14.56564896  3261"}}, "geometry": {"type": "Point", "coordinates": [-78.84603025377407, -16.070186770454622]}}, {"type": "Feature", "properties": {"norad_id": 29833, "name": "FENGYUN 1C DEB", "group": "fengyun-1c-debris", "lat": 42.890051488161234, "lon": 163.62718483741403, "alt_km": 604.6980582417655, "timestamp": "2025-12-17T23:38:07.125542+00:00", "meta": {"OBJECT_NAME": "FENGYUN 1C DEB", "OBJECT_ID": "1999-025EB", "EPOCH": "2025-12-17T11:44:41.293248", "MEAN_MOTION": 14.91209833, "ECCENTRICITY": 0.00886591, "INCLINATION": 99.0744, "RA_OF_ASC_NODE": 334.5199, "ARG_OF_PERICENTER": 241.624, "MEAN_ANOMALY": 117.6015, "EPHEMERIS_TYPE": 0, "CLASSIFICATION_TYPE": "U", "NORAD_CAT_ID": 29833, "ELEMENT_SET_NO": 999, "REV_AT_EPOCH": 642, "BSTAR": 0.00084334597, "MEAN_MOTION_DOT": 8.965e-05, "MEAN_MOTION_DDOT": 0}, "tle": {"line1": "1 29833U 99025EB  25351.48936682  .00008965  00000+0  84335-3 0  9995", "line2": "2 29833  99.0744 334.5199 0088659 241.6240 117.6015 14.91209833  6422"}}, "geometry": {"type": "Point", "coordinates": [163.62718483741403, 42.890051488161234]}}, {"type": "Feature", "properties": {"norad_id": 29835, "name": "FENGYUN 1C DEB", "group": "fengyun-1c-debris", "lat": 35.03995055052639, "lon": -52.91145291586857, "alt_km": 808.0280363248312, "timestamp": "2025-12-17T23:38:07.125552+00:00", "meta": {"OBJECT_NAME": "FENGYUN 1C DEB", "OBJECT_ID": "1999-025ED", "EPOCH": "2025-12-17T08:15:02.918592", "MEAN_MOTION": 14.43376585, "ECCENTRICITY": 0.01677088, "INCLINATION": 99.026, "RA_OF_ASC_NODE": 120.0095, "ARG_OF_PERICENTER": 23.6192, "MEAN_ANOMALY": 30.1716, "EPHEMERIS_TYPE": 0, "CLASSIFICATION_TYPE": "U", "NORAD_CAT_ID": 29835, "ELEMENT_SET_NO": 999, "REV_AT_EPOCH": 99561, "BSTAR": 4.6372027e-05, "MEAN_MOTION_DOT": 1.28e-06, "MEAN_MOTION_DDOT": 0}, "tle": {"line1": "1 29835U 99025ED  25351.34378378  .00000128  00000+0  46372-4 0  9997", "line2": "2 29835  99.0260 120.0095 0167708  23.6192  30.1716 14.43376585995618"}}, "geometry": {"type": "Point", "coordinates": [-52.91145291586857, 35.03995055052639]}}, {"type": "Feature", "properties": {"norad_id": 29836, "name": "FENGYUN 1C DEB", "group": "fengyun-1c-debris", "lat": -54.94921358407619, "lon": -104.03013716505764, "alt_km": 647.031020538916, "timestamp": "2025-12-17T23:38:07.125563+00:00", "meta": {"OBJECT_NAME": "FENGYUN 1C DEB", "OBJECT_ID": "1999-025EE", "EPOCH": "2025-12-17T06:18:38.663136", "MEAN_MOTION": 14.54132486, "ECCENTRICITY": 0.01547668, "INCLINATION": 98.1881, "RA_OF_ASC_NODE": 87.1072, "ARG_OF_PERICENTER": 188.3982, "MEAN_ANOMALY": 229.382, "EPHEMERIS_TYPE": 0, "CLASSIFICATION_TYPE": "U", "NORAD_CAT_ID": 29836, "ELEMENT_SET_NO": 999, "REV_AT_EPOCH": 63621, "BSTAR": 0.00054925354, "MEAN_MOTION_DOT": 2.672e-05, "MEAN_MOTION_DDOT": 0}, "tle": {"line1": "1 29836U 99025EE  25351.26294749  .00002672  00000+0  54925-3 0  9996", "line2": "2 29836  98.1881  87.1072 0154766 188.3982 229.3820 14.54132486636210"}}, "geometry": {"type": "Point", "coordinates": [-104.03013716505764, -54.94921358407619]}}, {"type": "Feature", "properties": {"norad_id": 29841, "name": "FENGYUN 1C DEB", "group": "fengyun-1c-debris", "lat": 71.1359755292991, "lon": 146.37281699011717, "alt_km": 851.2414840001393, "timestamp": "2025-12-17T23:38:07.125573+00:00", "meta": {"OBJECT_NAME": "FENGYUN 1C DEB", "OBJECT_ID": "1999-025EK", "EPOCH": "2025-12-17T10:26:20.860224", "MEAN_MOTION": 14.46497672, "ECCENTRICITY": 0.02001542, "INCLINATION": 98.8188, "RA_OF_ASC_NODE": 298.7763, "ARG_OF_PERICENTER": 319.5736, "MEAN_ANOMALY": 164.3413, "EPHEMERIS_TYPE": 0, "CLASSIFICATION_TYPE": "U", "NORAD_CAT_ID": 29841, "ELEMENT_SET_NO": 999, "REV_AT_EPOCH": 99391, "BSTAR": 0.00041242091, "MEAN_MOTION_DOT": 1.845e-05, "MEAN_MOTION_DDOT": 0}, "tle": {"line1": "1 29841U 99025EK  25351.43496366  .00001845  00000+0  41242-3 0  9999", "line2": "2 29841  98.8188 298.7763 0200154 319.5736 164.3413 14.46497672993919"}}, "geometry": {"type": "Point", "coordinates": [146.37281699011717, 71.1359755292991]}}, {"type": "Feature", "properties": {"norad_id": 29842, "name": "FENGYUN 1C DEB", "group": "fengyun-1c-debris", "lat": 51.85424457825953, "lon": 68.6301026599372, "alt_km": 695.2189316462591, "timestamp": "2025-12-17T23:38:07.125583+00:00", "meta": {"OBJECT_NAME": "FENGYUN 1C DEB", "OBJECT_ID": "1999-025EL", "EPOCH": "2025-12-17T12:26:06.636768", "MEAN_MOTION": 14.60317002, "ECCENTRICITY": 0.01091034, "INCLINATION": 98.5693, "RA_OF_ASC_NODE": 79.2166, "ARG_OF_PERICENTER": 150.7047, "MEAN_ANOMALY": 331.3665, "EPHEMERIS_TYPE": 0, "CLASSIFICATION_TYPE": "U", "NORAD_CAT_ID": 29842, "ELEMENT_SET_NO": 999, "REV_AT_EPOCH": 99423, "BSTAR": 0.0010044771, "MEAN_MOTION_DOT": 5.226e-05, "MEAN_MOTION_DDOT": 0}, "tle": {"line1": "1 29842U 99025EL  25351.51813237  .00005226  00000+0  10045-2 0  9992", "line2": "2 29842  98.5693  79.2166 0109103 150.7047 331.3665 14.60317002994234"}}, "geometry": {"type": "Point", "coordinates": [68.6301026599372, 51.85424457825953]}}]}